{
"type": "FeatureCollection",
"name": "region-bounding-box",
"crs": { "type": "name", "properties": { "name": "urn:ogc:def:crs:EPSG::32736" } },
"features": [
{ "type": "Feature", "properties": { "width": 439279.080136, "height": 276511.46626199997, "area": 121465702546.7686, "perimeter": 1431581.092797 }, "geometry": { "type": "MultiPolygon", "coordinates": [ [ [ [ 399224.814054168004077, 8749309.79107528924942 ], [ 399224.814054168004077, 9045821.257337419316173 ], [ 858503.894190469989553, 9045821.257337419316173 ], [ 858503.894190469989553, 8749309.79107528924942 ], [ 399224.814054168004077, 8749309.79107528924942 ] ] ] ] } }
]
}
